{
    "links": {
        "self": "http://www.neowsapp.com/rest/v1/neo/3669886?api_key=iIulBulltgU6a56xZRHN4H3l9WmuAYTsLGpBGhQ2"
    },
    "id": "3669886",
    "neo_reference_id": "3669886",
    "name": "(2014 HM132)",
    "designation": "2014 HM132",
    "nasa_jpl_url": "http://ssd.jpl.nasa.gov/sbdb.cgi?sstr=3669886",
    "absolute_magnitude_h": 25.0,
    "estimated_diameter": {
        "kilometers": {
            "estimated_diameter_min": 0.02658,
            "estimated_diameter_max": 0.0594346868
        },
        "meters": {
            "estimated_diameter_min": 26.58,
            "estimated_diameter_max": 59.4346868419
        },
        "miles": {
            "estimated_diameter_min": 0.0165160412,
            "estimated_diameter_max": 0.0369309908
        },
        "feet": {
            "estimated_diameter_min": 87.2047272,
            "estimated_diameter_max": 194.9956979785
        }
    },
    "is_potentially_hazardous_asteroid": false,
    "close_approach_data": [
        {
            "close_approach_date": "2014-06-10",
            "close_approach_date_full": "2014-Jun-10 00:00",
            "epoch_date_close_approach": 1402358400000,
            "relative_velocity": {
                "kilometers_per_second": "4.0711825583",
                "kilometers_per_hour": "14656.2572099362",
                "miles_per_hour": "9106.8282646962"
            },
            "miss_distance": {
                "astronomical": "0.1230291371",
                "lunar": "47.8583343319",
                "kilometers": "18404896.858097977",
                "miles": "11436272.6006150026"
            },
            "orbiting_body": "Earth"
        },
        {
            "close_approach_date": "2071-06-30",
            "close_approach_date_full": "2071-Jun-30 13:50",
            "epoch_date_close_approach": 3202897800000,
            "relative_velocity": {
                "kilometers_per_second": "10.0930032326",
                "kilometers_per_hour": "36334.8116373179",
                "miles_per_hour": "22577.0389309768"
            },
            "miss_distance": {
                "astronomical": "0.3084897061",
                "lunar": "120.0024956729",
                "kilometers": "46149402.949486007",
                "miles": "28675909.2732286166"
            },
            "orbiting_body": "Earth"
        },
        {
            "close_approach_date": "2101-05-17",
            "close_approach_date_full": "2101-May-17 04:33",
            "epoch_date_close_approach": 4145747580000,
            "relative_velocity": {
                "kilometers_per_second": "11.628871087",
                "kilometers_per_hour": "41863.9359132904",
                "miles_per_hour": "26012.6217345664"
            },
            "miss_distance": {
                "astronomical": "0.363206779",
                "lunar": "141.287437031",
                "kilometers": "54334960.50796073",
                "miles": "33762178.886608874"
            },
            "orbiting_body": "Earth"
        },
        {
            "close_approach_date": "2139-06-04",
            "close_approach_date_full": "2139-Jun-04 13:14",
            "epoch_date_close_approach": 5346479640000,
            "relative_velocity": {
                "kilometers_per_second": "4.8145929784",
                "kilometers_per_hour": "17332.5347223655",
                "miles_per_hour": "10769.763033461"
            },
            "miss_distance": {
                "astronomical": "0.1433920874",
                "lunar": "55.7795219986",
                "kilometers": "21451150.849893838",
                "miles": "13329127.0582894444"
            },
            "orbiting_body": "Earth"
        },
        {
            "close_approach_date": "2158-06-07",
            "close_approach_date_full": "2158-Jun-07 12:58",
            "epoch_date_close_approach": 5946353880000,
            "relative_velocity": {
                "kilometers_per_second": "4.2685661956",
                "kilometers_per_hour": "15366.8383040966",
                "miles_per_hour": "9548.3557228983"
            },
            "miss_distance": {
                "astronomical": "0.1257217949",
                "lunar": "48.9057782161",
                "kilometers": "18807712.729616863",
                "miles": "11686570.7766961894"
            },
            "orbiting_body": "Earth"
        }
    ],
    "orbital_data": {
        "orbit_id": "13",
        "orbit_determination_date": "2017-04-06 08:41:20",
        "first_observation_date": "2014-04-23",
        "last_observation_date": "2014-06-20",
        "data_arc_in_days": 58,
        "observations_used": 27,
        "orbit_uncertainty": "6",
        "minimum_orbit_intersection": ".120096",
        "jupiter_tisserand_invariant": "3.785",
        "epoch_osculation": "2459000.5",
        "eccentricity": ".4180952508492334",
        "semi_major_axis": "1.94602884442305",
        "inclination": "1.42532464256083",
        "ascending_node_longitude": "188.6134307062887",
        "orbital_period": "991.5676208080802",
        "perihelion_distance": "1.132403426554151",
        "perihelion_argument": "67.44931914648348",
        "aphelion_distance": "2.759654262291948",
        "perihelion_time": "2458800.459600927675",
        "mean_anomaly": "72.62696174704529",
        "mean_motion": ".3630614720018966",
        "equinox": "J2000",
        "orbit_class": {
            "orbit_class_type": "AMO",
            "orbit_class_description": "Near-Earth asteroid orbits similar to that of 1221 Amor",
            "orbit_class_range": "1.017 AU < q (perihelion) < 1.3 AU"
        }
    },
    "is_sentry_object": false
}